IRIDIUM 112             
1 41925U 17003J   25346.01437492  .00000067  00000+0  16905-4 0  9999
2 41925  86.3982 166.5159 0001872  85.9208 274.2201 14.34217633466448
IRIDIUM 111             
1 41926U 17003K   25346.00169250 -.00000029  00000+0 -17325-4 0  9990
2 41926  86.3989 166.5873 0001814  92.7064 267.4339 14.34217337466426
IRIDIUM 113             
1 42803U 17039A   25345.42350905  .00000197  00000+0  63163-4 0  9993
2 42803  86.3977  40.6459 0001996  93.7761 266.3663 14.34218210444274
IRIDIUM 123             
1 42804U 17039B   25345.53475647  .00000527  00000+0  18118-3 0  9993
2 42804  86.3968  72.0833 0002021 105.4537 254.6883 14.34219202443053
IRIDIUM 120             
1 42805U 17039C   25345.62647191  .00000336  00000+0  11304-3 0  9997
2 42805  86.3966  40.3678 0002494  98.5298 261.6181 14.34219101444291
IRIDIUM 115             
1 42806U 17039D   25345.43998123  .00000586  00000+0  16824-3 0  9990
2 42806  86.4502  40.5487 0002393 107.7866 252.3597 14.43285180447180
IRIDIUM 118             
1 42807U 17039E   25345.70599643  .00000512  00000+0  17562-3 0  9994
2 42807  86.3966  72.0106 0001922  95.1472 264.9944 14.34215657443073
IRIDIUM 117             
1 42808U 17039F   25345.65526406  .00000487  00000+0  16698-3 0  9996
2 42808  86.3965  71.9911 0001969 101.8583 258.2834 14.34217836443091
